#dP2018 12 21  0  0  0.00000000      96 __u+U IGS08 FIT  IAC
## 2032 432000.00000000   900.00000000 58473 0.0000000000000
+   95   C01C03C04C05C06C07C08C09C10C11C12C13C14E01E02E03E04
+        E05E07E08E09E11E12E13E14E15E18E19E21E24E25E26E27E30
+        E31E33E36G01G02G03G04G05G06G07G08G09G10G11G12G13G14
+        G15G16G17G18G19G20G21G22G23G24G25G26G27G28G29G30G31
+        G32J01J02J03R01R02R03R04R05R07R08R09R10R11R13R14R15
+        R16R17R18R19R20R21R22R23R24R26  0  0  0  0  0  0  0
++        13 12 12 13  8  8  8  8  8  7  7  9  8  5  6  5  5
++         5  6  5  5  5  5  6  6  6  6  5  6  5  5  5  6  5
++         5  6  6  3  3  3  3  3  3  3  3  3  3  3  3  3  3
++         3  3  3  4  3  3  3  3  3  3  3  3  3  3  3  3  3
++         3  8 11 11  5  5  5  5  5  5  5  5  5  5  5  5  5
++         5  5  5  5  5  5  5  5  5  8  0  0  0  0  0  0  0
%c M  cc GPS ccc cccc cccc cccc cccc ccccc ccccc ccccc ccccc
%c cc cc ccc ccc cccc cccc cccc cccc ccccc ccccc ccccc ccccc
%f  1.2500000  1.025000000  0.00000000000  0.000000000000000
%f  0.0000000  0.000000000  0.00000000000  0.000000000000000
%i    0    0    0    0      0      0      0      0         0
%i    0    0    0    0      0      0      0      0         0
/* INFORMATION & ANALYSIS CENTER (IAC)            FINAL DATA
/* S/V CLOCKS ARE ALIGNED TO GPS & GLONASS TIME RESPECTIVELY
/* USING THE BROADCAST EPHEMERIS                            
/* PCV:IGS14_2029 OL/AL:FES2004  NONE     YN ORB:CoN CLK:CoN
*  2018 12 21  7 15  0.00000000
PC01 -32337.323670  27072.084340   -655.474857    -12.360354
PC03 -14744.243627  39492.269337   -518.478902   -163.835462
PC04 -39663.350436  14351.265996   -467.909997   -246.993459
PC05  21857.237539  36047.918853   -244.908736     20.023216
PC06 -22532.964668  23746.059341  26667.732313    177.994482
PC07 -17364.054401  37906.132832   7875.887450   -194.392568
PC08  -5039.791242  25130.073705 -33338.924937     68.029208
PC09  -5676.362699  25062.873252  33555.687177    383.611155
PC10  -6126.827715  41317.460985  -6939.172850   -339.464699
PC11  13729.923609  16516.508412 -17718.103431    -97.797991
PC12 -16250.176651   9390.970751 -20614.554584    289.960590
PC13   5851.424335  32424.935040 -26104.622663   -440.459343
PC14  -6262.365392  21835.825397  16225.916010    514.431333
PE01  15159.627903   7024.429702 -24428.916174   -503.585794
PE02 -15173.295647  -6986.993490  24441.450360     40.006265
PE03 -25422.857130  -1530.955003 -15099.599456   -113.154829
PE04  26728.975907 -12467.966281  -2519.359950   -183.396390
PE05  -9201.821481 -14723.375293 -23978.205105    138.899983
PE07 -12344.455724  19253.024207  18795.262165    -97.606872
PE08 -26607.709239  12723.164431   2585.282834   6439.276657
PE09  12201.093025 -19252.076740 -18879.041057   6582.190626
PE11    997.863953 -18646.147691  22965.804595   5717.142887
PE12  19007.494781  -4111.805977  22327.815216   5764.011687
PE13   -991.567265  18520.896083 -23057.680056    380.752838
PE14 -22307.923367  -8009.318219   7992.644983   6471.779323
PE15 -18664.458227   4491.029310 -22520.266437    925.126646
PE18  19609.169001  16712.092412 -18301.861685   5666.550624
PE19  24331.814436   2882.719722  16607.108900     -9.734391
PE21   5706.357399  25385.429162 -14112.210234   -510.428039
PE24   6852.120538 -28549.310900  -3853.131414   6327.634472
PE25  -5693.581842 -25402.512310  14096.477702   1947.831161
PE26  16992.547651  21992.137736 -10163.219092   5111.454608
PE27  -7027.741046  28409.358157   4436.031187    566.032151
PE30 -15622.939569  15201.598641  20017.229112   5253.006491
PE31  15609.864391 -14781.482818 -20335.961290    953.172912
PE33  25486.110884  12196.661018   8835.564881    847.779625
PE36 -17328.172533 -21771.131978  10109.106909    769.097750
PG01  18053.780013   6563.487990  18305.303310   -132.266619
PG02 -14519.669768 -22370.533290    294.722316    -91.514385
PG03  18002.096318  -4891.161436  18839.492780    171.293966
PG04  10317.896088  13583.333005 -20735.399490   -107.512227
PG05  -8244.990824 -15186.625847 -20236.968699      0.480937
PG06  -4647.949303 -23510.408078  11466.884280    312.395778
PG07  12231.330707  -9121.983862 -21472.065884     66.619100
PG08  23881.857141   6445.126613  -9858.477488   -126.320700
PG09  22600.191129  -8321.536133 -11258.640179    480.913076
PG10 -10352.741529  23986.044532   4235.130757    148.428713
PG11  23312.818518   7010.460068   9814.832704   -685.970598
PG12 -16762.680138    767.576082  20345.283721    282.816692
PG13 -17976.441818 -12637.981147 -15058.735641    -80.919566
PG14   2491.982175  15468.755480  21764.742546    -94.345518
PG15 -25604.766593  -3227.627768  -7343.495786   -335.444841
PG16   6036.304455  15472.720390 -20782.175546     -7.892631
PG17   8385.665459 -13851.833599  21440.436790    -15.743565
PG18  18748.316901  15371.095970  10537.078140      7.678773
PG19  -2189.192199 -14776.312297  21660.010120   -371.706156
PG20 -14315.940631  21439.870207  -6221.276709    520.198825
PG21  -9031.406637  13120.036061 -20467.514705   -283.572196
PG22  16058.664544   3320.183936  21120.036123   -603.811735
PG23  26681.562793  -1540.806542  -1493.201060   -202.925830
PG24 -19520.217406 -10523.317097  14709.605410    -59.785760
PG25 -18417.063871  12364.115052  14231.010955   -694.314681
PG26   -597.128681  22278.688722 -14332.867478     73.759852
PG27  16226.971834  11816.281555 -17617.628229    -35.694799
PG28  13087.879133 -22951.654307   3714.903807    759.275923
PG29 -24545.675660   4505.396341  -9109.971930    310.879269
PG30   4283.491386 -19411.567759 -17516.315643    -23.119090
PG31   6053.679075  24099.839247   8752.814560     71.358915
PG32  -5570.929231  15009.300999  21216.259339   -309.762321
PJ01 -26395.114859  32897.760820   2624.180026   -236.082439
PJ02 -25400.510190  25171.076786  27075.907062     -0.845405
PJ03 -31056.856430  18943.015578 -16458.293332      2.333027
PR01 -17793.430175   1275.979138 -18244.755155     36.748557
PR02 -21486.728850  13692.686433   -259.110130    345.460074
PR03 -11171.529964  16376.288673  16056.380296    152.256726
PR04   6054.869904   9172.783825  23026.288378    288.246489
PR05  18954.556644  -2879.018596  16839.055213     18.163851
PR07  10887.279926 -16312.260511 -16306.535601    -54.176230
PR08  -5316.781373  -9622.866816 -22973.509378     19.906341
PR09   8727.348862 -14161.271165 -19298.900482     44.835826
PR10   2030.500729 -24562.850424  -6436.328459     38.050255
PR11  -6602.879283 -21687.265094  11669.337289    -50.872455
PR13  -8596.813804  13351.269624  19948.665742    -18.132782
PR14  -1914.645330  24627.973109   6396.544651     34.171429
PR15   6145.041253  22226.102510 -10874.486581     98.940164
PR16  10975.391768   6932.012925 -21954.081302    109.253148
PR17   -442.693200  11542.321873 -22723.931323    189.625494
PR18  15606.627852  15020.791033 -13496.758460     28.403352
PR19  22864.893484  10846.174831   3181.061951    -62.212950
PR20  16611.874715   -831.941417  19368.390362   -363.025749
PR21   -182.467803 -11726.953257  22661.562462    -21.077638
PR22 -17169.295838 -14864.223993  11501.881838    -64.421826
PR23 -22929.491298  -8001.533616  -7809.679790    198.158368
PR24 -15537.199658   2135.849054 -20132.653921   -175.170281
PR26  17832.920052     -2.815327  18241.288636     11.126391
EOF
